[{"OBJECT_NAME":"STARLETTE","OBJECT_ID":"1975-010A","EPOCH":"2026-03-05T17:06:48.750336","MEAN_MOTION":13.82349089,"ECCENTRICITY":0.0205559,"INCLINATION":49.8226,"RA_OF_ASC_NODE":153.0271,"ARG_OF_PERICENTER":81.2099,"MEAN_ANOMALY":281.2011,"EPHEMERIS_TYPE":0,"CLASSIFICATION_TYPE":"U","NORAD_CAT_ID":7646,"ELEMENT_SET_NO":999,"REV_AT_EPOCH":58022,"BSTAR":1.9229e-5,"MEAN_MOTION_DOT":-1.21e-6,"MEAN_MOTION_DDOT":0},{"OBJECT_NAME":"LAGEOS 1","OBJECT_ID":"1976-039A","EPOCH":"2026-03-05T17:41:57.276672","MEAN_MOTION":6.38664888,"ECCENTRICITY":0.004466,"INCLINATION":109.818,"RA_OF_ASC_NODE":143.9288,"ARG_OF_PERICENTER":324.4325,"MEAN_ANOMALY":65.1934,"EPHEMERIS_TYPE":0,"CLASSIFICATION_TYPE":"U","NORAD_CAT_ID":8820,"ELEMENT_SET_NO":999,"REV_AT_EPOCH":90653,"BSTAR":0,"MEAN_MOTION_DOT":-4.0e-8,"MEAN_MOTION_DDOT":0},{"OBJECT_NAME":"AJISAI (EGS)","OBJECT_ID":"1986-061A","EPOCH":"2026-03-05T18:57:40.260384","MEAN_MOTION":12.445156,"ECCENTRICITY":0.0011256,"INCLINATION":50.008,"RA_OF_ASC_NODE":105.3396,"ARG_OF_PERICENTER":277.0009,"MEAN_ANOMALY":195.3478,"EPHEMERIS_TYPE":0,"CLASSIFICATION_TYPE":"U","NORAD_CAT_ID":16908,"ELEMENT_SET_NO":999,"REV_AT_EPOCH":46751,"BSTAR":0.00011784,"MEAN_MOTION_DOT":-8.1e-7,"MEAN_MOTION_DDOT":0},{"OBJECT_NAME":"COSMOS 1989 (ETALON 1)","OBJECT_ID":"1989-001C","EPOCH":"2026-03-05T14:43:23.539296","MEAN_MOTION":2.13156076,"ECCENTRICITY":0.0023411,"INCLINATION":64.8849,"RA_OF_ASC_NODE":75.7364,"ARG_OF_PERICENTER":217.5677,"MEAN_ANOMALY":189.1688,"EPHEMERIS_TYPE":0,"CLASSIFICATION_TYPE":"U","NORAD_CAT_ID":19751,"ELEMENT_SET_NO":999,"REV_AT_EPOCH":28916,"BSTAR":0,"MEAN_MOTION_DOT":3.0e-8,"MEAN_MOTION_DDOT":0},{"OBJECT_NAME":"COSMOS 2024 (ETALON 2)","OBJECT_ID":"1989-039C","EPOCH":"2026-03-05T13:42:40.440096","MEAN_MOTION":2.1320459,"ECCENTRICITY":0.0020466,"INCLINATION":64.9968,"RA_OF_ASC_NODE":314.1074,"ARG_OF_PERICENTER":213.399,"MEAN_ANOMALY":300.6195,"EPHEMERIS_TYPE":0,"CLASSIFICATION_TYPE":"U","NORAD_CAT_ID":20026,"ELEMENT_SET_NO":999,"REV_AT_EPOCH":28629,"BSTAR":0,"MEAN_MOTION_DOT":-5.2e-7,"MEAN_MOTION_DDOT":0},{"OBJECT_NAME":"LAGEOS 2","OBJECT_ID":"1992-070B","EPOCH":"2026-03-05T14:00:10.138752","MEAN_MOTION":6.4729333,"ECCENTRICITY":0.0137771,"INCLINATION":52.6793,"RA_OF_ASC_NODE":332.1374,"ARG_OF_PERICENTER":142.0275,"MEAN_ANOMALY":38.8022,"EPHEMERIS_TYPE":0,"CLASSIFICATION_TYPE":"U","NORAD_CAT_ID":22195,"ELEMENT_SET_NO":999,"REV_AT_EPOCH":78871,"BSTAR":0,"MEAN_MOTION_DOT":-9.0e-8,"MEAN_MOTION_DDOT":0},{"OBJECT_NAME":"STELLA","OBJECT_ID":"1993-061B","EPOCH":"2026-03-05T17:52:00.454944","MEAN_MOTION":14.27467374,"ECCENTRICITY":0.0006524,"INCLINATION":98.7849,"RA_OF_ASC_NODE":128.5709,"ARG_OF_PERICENTER":168.5856,"MEAN_ANOMALY":308.5701,"EPHEMERIS_TYPE":0,"CLASSIFICATION_TYPE":"U","NORAD_CAT_ID":22824,"ELEMENT_SET_NO":999,"REV_AT_EPOCH":69001,"BSTAR":3.8528e-6,"MEAN_MOTION_DOT":-3.6e-7,"MEAN_MOTION_DDOT":0},{"OBJECT_NAME":"LARETS","OBJECT_ID":"2003-042F","EPOCH":"2026-03-05T18:22:34.307040","MEAN_MOTION":14.63847409,"ECCENTRICITY":0.001231,"INCLINATION":98.4008,"RA_OF_ASC_NODE":224.8693,"ARG_OF_PERICENTER":4.8475,"MEAN_ANOMALY":355.2844,"EPHEMERIS_TYPE":0,"CLASSIFICATION_TYPE":"U","NORAD_CAT_ID":27944,"ELEMENT_SET_NO":999,"REV_AT_EPOCH":19823,"BSTAR":3.1572e-5,"MEAN_MOTION_DOT":1.15e-6,"MEAN_MOTION_DDOT":0},{"OBJECT_NAME":"LARES","OBJECT_ID":"2012-006A","EPOCH":"2026-03-05T18:11:57.647904","MEAN_MOTION":12.54932185,"ECCENTRICITY":0.0007503,"INCLINATION":69.488,"RA_OF_ASC_NODE":108.9147,"ARG_OF_PERICENTER":154.5319,"MEAN_ANOMALY":205.6078,"EPHEMERIS_TYPE":0,"CLASSIFICATION_TYPE":"U","NORAD_CAT_ID":38077,"ELEMENT_SET_NO":999,"REV_AT_EPOCH":64409,"BSTAR":1.3761e-5,"MEAN_MOTION_DOT":-3.6e-7,"MEAN_MOTION_DDOT":0},{"OBJECT_NAME":"LARES-2","OBJECT_ID":"2022-080A","EPOCH":"2026-02-20T17:16:46.407648","MEAN_MOTION":6.38965205,"ECCENTRICITY":0.00051588,"INCLINATION":70.178,"RA_OF_ASC_NODE":345.2672,"ARG_OF_PERICENTER":0.959,"MEAN_ANOMALY":359.1035,"EPHEMERIS_TYPE":0,"CLASSIFICATION_TYPE":"U","NORAD_CAT_ID":53105,"ELEMENT_SET_NO":999,"REV_AT_EPOCH":8422,"BSTAR":0,"MEAN_MOTION_DOT":-1.9e-7,"MEAN_MOTION_DDOT":0}]
